{"type": "FeatureCollection", "features": [{"type": "Feature", "properties": {"name": "Camino Portugu\u00e9s \u2014 Coastal + Litoral + Spiritual Variant", "description": "Stitched from waymarkedtrails/OSM GPX files. Segments normalized (south-going reversed), sorted by lat, simplified with Douglas-Peucker at 25m. Route: Porto \u2192 Portuguese litoral \u2192 Caminha ferry to A Guarda \u2192 Baiona \u2192 Vigo \u2192 Redondela \u2192 Pontevedra \u2192 Spiritual Variant (Combarro, Armenteira, Vilanova de Arousa) \u2192 boat translatio \u2192 Pontecesures \u2192 Padr\u00f3n \u2192 Santiago."}, "geometry": {"type": "LineString", "coordinates": [[-8.6097467, 41.1407193], [-8.6128309, 41.1404108], [-8.613694, 41.1427108], [-8.6132083, 41.1424686], [-8.612686, 41.1429658], [-8.6120869, 41.1429604], [-8.6123224, 41.1426462], [-8.6117564, 41.1427595], [-8.6112648, 41.1433128], [-8.6120004, 41.1435223], [-8.6126986, 41.1453257], [-8.6154811, 41.1449087], [-8.6157393, 41.1454704], [-8.6154787, 41.1459887], [-8.6162895, 41.1460826], [-8.6158269, 41.1480896], [-8.6182826, 41.1529861], [-8.6199168, 41.1586397], [-8.6213127, 41.1602583], [-8.6225796, 41.1607459], [-8.624151, 41.164273], [-8.6246854, 41.1643435], [-8.624081, 41.1645599], [-8.6248936, 41.1656644], [-8.6263458, 41.1725002], [-8.6314024, 41.1835695], [-8.633857, 41.1933043], [-8.6381027, 41.1959231], [-8.6414407, 41.2023824], [-8.6430293, 41.2088959], [-8.6435974, 41.2091505], [-8.6424745, 41.2111971], [-8.6431243, 41.213799], [-8.6461147, 41.2163843], [-8.646241, 41.2176546], [-8.6528049, 41.2216076], [-8.6583745, 41.2268712], [-8.6615161, 41.2328193], [-8.6618462, 41.2354137], [-8.663269, 41.238359], [-8.6655669, 41.2404109], [-8.6660708, 41.2424948], [-8.6674529, 41.2447225], [-8.6709025, 41.2472712], [-8.6717198, 41.2503112], [-8.6758465, 41.2540113], [-8.6770385, 41.2565174], [-8.6787649, 41.2555349], [-8.6789775, 41.2570737], [-8.6800154, 41.2597446], [-8.6828377, 41.2616662], [-8.6834424, 41.2655824], [-8.6875601, 41.2681124], [-8.6898478, 41.2686345], [-8.6908488, 41.2681056], [-8.6921036, 41.2688046], [-8.69259, 41.2695549], [-8.6920018, 41.2711637], [-8.6932438, 41.272481], [-8.6944362, 41.2726388], [-8.6984653, 41.2760492], [-8.701591, 41.2769862], [-8.7024277, 41.2802849], [-8.7025919, 41.282875], [-8.701725, 41.2843003], [-8.7019005, 41.2851102], [-8.7031289, 41.2871802], [-8.7048782, 41.2875667], [-8.7055689, 41.2885989], [-8.7052007, 41.2897126], [-8.7070576, 41.2932163], [-8.7079069, 41.2979478], [-8.7137654, 41.3036632], [-8.7157671, 41.3048981], [-8.7182167, 41.3076657], [-8.7192046, 41.3124497], [-8.722877, 41.317447], [-8.7235383, 41.3200879], [-8.7248561, 41.3231217], [-8.7303863, 41.3315006], [-8.7340263, 41.338047], [-8.7343929, 41.3421145], [-8.7348675, 41.3424151], [-8.7353252, 41.3448638], [-8.7374496, 41.3475649], [-8.7377792, 41.3495749], [-8.7386321, 41.3504618], [-8.738914, 41.3503813], [-8.7394161, 41.3518164], [-8.7414762, 41.3511774], [-8.7415524, 41.3515895], [-8.7422437, 41.3513301], [-8.743002, 41.353216], [-8.743072, 41.3544419], [-8.7435802, 41.3551033], [-8.742939, 41.3556133], [-8.7431616, 41.3564667], [-8.7436142, 41.3569786], [-8.7445843, 41.3572601], [-8.7490453, 41.3616524], [-8.7515362, 41.3652994], [-8.7529215, 41.3658668], [-8.7537407, 41.3666777], [-8.7559381, 41.3703586], [-8.7601469, 41.3753101], [-8.7609183, 41.378585], [-8.7653914, 41.3795064], [-8.7671649, 41.3792497], [-8.7676798, 41.3801364], [-8.7683922, 41.3798226], [-8.7697608, 41.381557], [-8.7740457, 41.3890777], [-8.7740698, 41.390862], [-8.7744804, 41.3918575], [-8.7764509, 41.3936674], [-8.7780837, 41.3965051], [-8.7778081, 41.397544], [-8.7785505, 41.3978505], [-8.7776839, 41.3990248], [-8.7779347, 41.3995855], [-8.7778436, 41.4004134], [-8.7775489, 41.4004617], [-8.7801917, 41.4055362], [-8.7797841, 41.4057458], [-8.7816006, 41.4081957], [-8.7799253, 41.4087122], [-8.7825515, 41.410838], [-8.7838356, 41.4135599], [-8.7845645, 41.4141511], [-8.7844894, 41.4154505], [-8.7854142, 41.4153632], [-8.7852629, 41.4161988], [-8.7856789, 41.4162712], [-8.7858067, 41.416906], [-8.7851318, 41.4186236], [-8.7846691, 41.4186346], [-8.784027, 41.4231465], [-8.7833204, 41.4245497], [-8.7831773, 41.426393], [-8.7836465, 41.4285697], [-8.7837336, 41.4318241], [-8.7825167, 41.4325935], [-8.7822476, 41.433343], [-8.7825544, 41.4336799], [-8.781967, 41.4346704], [-8.7780994, 41.4380038], [-8.7753852, 41.4427704], [-8.7768281, 41.4435531], [-8.7763877, 41.4466242], [-8.7754259, 41.4487625], [-8.7752991, 41.4522818], [-8.7746792, 41.4534515], [-8.7753135, 41.4552338], [-8.7741743, 41.4549073], [-8.7725917, 41.4605249], [-8.7708299, 41.4600749], [-8.7705349, 41.4604674], [-8.7698754, 41.4604104], [-8.7699209, 41.4592861], [-8.7675812, 41.4602276], [-8.7678622, 41.4620386], [-8.768973, 41.462799], [-8.7681481, 41.46475], [-8.7676726, 41.4673568], [-8.766121, 41.4677832], [-8.7647432, 41.470067], [-8.765502, 41.4731572], [-8.7655783, 41.4744589], [-8.7651949, 41.4756916], [-8.7653886, 41.4783175], [-8.7656601, 41.4785781], [-8.7641531, 41.4809563], [-8.7649408, 41.4829705], [-8.7641835, 41.4865085], [-8.764884, 41.4875722], [-8.7646636, 41.4879167], [-8.7650198, 41.4922265], [-8.7655245, 41.4935401], [-8.765984, 41.4938682], [-8.7670852, 41.4976113], [-8.7667743, 41.4994659], [-8.7693191, 41.506095], [-8.7694068, 41.5073285], [-8.7664883, 41.5073971], [-8.7667385, 41.5088644], [-8.7680008, 41.510301], [-8.7676651, 41.5105045], [-8.7709163, 41.5126098], [-8.7717116, 41.5135508], [-8.7717577, 41.5142518], [-8.7728426, 41.5146954], [-8.7709115, 41.5173179], [-8.7743007, 41.5206213], [-8.7763393, 41.5246835], [-8.7774804, 41.5257186], [-8.7771147, 41.5261469], [-8.7813778, 41.5327117], [-8.7817224, 41.5367825], [-8.7852789, 41.5366752], [-8.7864528, 41.5393013], [-8.7872615, 41.5400476], [-8.7875074, 41.5410481], [-8.7901115, 41.5441311], [-8.7911083, 41.5458556], [-8.790537, 41.5476565], [-8.7848444, 41.5483466], [-8.7851787, 41.5505593], [-8.7859431, 41.5511454], [-8.7880388, 41.5550603], [-8.7809327, 41.5571235], [-8.7826441, 41.5591817], [-8.7786561, 41.5615657], [-8.7801827, 41.5645556], [-8.7798249, 41.5675434], [-8.7804902, 41.5713645], [-8.7822443, 41.5736851], [-8.7835908, 41.5774734], [-8.7843079, 41.5775238], [-8.7849972, 41.5782478], [-8.7856191, 41.5803024], [-8.7853728, 41.5809376], [-8.7861257, 41.5823246], [-8.7869938, 41.5828483], [-8.7865369, 41.5841183], [-8.7858638, 41.5843915], [-8.7848197, 41.5857676], [-8.7836819, 41.5885407], [-8.783506, 41.5932521], [-8.7825023, 41.5952982], [-8.783567, 41.5962961], [-8.7830275, 41.5973161], [-8.7828813, 41.6009796], [-8.7819761, 41.6027036], [-8.7803286, 41.6045405], [-8.7806511, 41.6053931], [-8.7814837, 41.6061145], [-8.7811852, 41.6086579], [-8.7817212, 41.6097606], [-8.7814522, 41.6105048], [-8.781977, 41.6116715], [-8.7844481, 41.6115523], [-8.786834, 41.6124576], [-8.7877215, 41.6123277], [-8.7882166, 41.611753], [-8.7888157, 41.6120932], [-8.7882445, 41.6131373], [-8.7889668, 41.6144721], [-8.7883492, 41.6150936], [-8.7888692, 41.616915], [-8.7871851, 41.6183861], [-8.7873468, 41.6196257], [-8.7883873, 41.6203782], [-8.788764, 41.621524], [-8.7884902, 41.6217648], [-8.7890793, 41.6232135], [-8.7889085, 41.6242249], [-8.7897546, 41.6245617], [-8.7889758, 41.6251694], [-8.7897498, 41.6250081], [-8.7898507, 41.6253045], [-8.789282, 41.6265475], [-8.788687, 41.6267831], [-8.7879359, 41.6266484], [-8.7878743, 41.6261135], [-8.7867504, 41.6256784], [-8.7867358, 41.6252385], [-8.7863807, 41.6253319], [-8.7859076, 41.6259528], [-8.7861013, 41.626823], [-8.7852106, 41.6270406], [-8.7844695, 41.6267954], [-8.784315, 41.627763], [-8.781182, 41.6289285], [-8.7794601, 41.6309041], [-8.7800959, 41.6332587], [-8.7801468, 41.6349847], [-8.78126, 41.6378734], [-8.7804347, 41.6387905], [-8.7792277, 41.638558], [-8.7773419, 41.6390987], [-8.7765668, 41.6400047], [-8.7771614, 41.6411519], [-8.7768999, 41.6423947], [-8.7777472, 41.6444278], [-8.7792208, 41.64609], [-8.7807686, 41.6465268], [-8.7821971, 41.6462927], [-8.7823085, 41.6478414], [-8.7816715, 41.6494619], [-8.7830309, 41.6491575], [-8.7840324, 41.651097], [-8.7846363, 41.6514032], [-8.7852725, 41.6511564], [-8.7863427, 41.6517876], [-8.7870904, 41.6527616], [-8.7866145, 41.6535801], [-8.7871769, 41.6547918], [-8.7884563, 41.6561285], [-8.7901756, 41.656882], [-8.7896875, 41.6586095], [-8.7885361, 41.6589405], [-8.7874616, 41.6603814], [-8.7908198, 41.6616479], [-8.7942225, 41.6634543], [-8.7947863, 41.665222], [-8.7946766, 41.6667474], [-8.7952722, 41.6675829], [-8.7944617, 41.6683566], [-8.7954647, 41.6688946], [-8.7972298, 41.6717818], [-8.8016276, 41.6741781], [-8.8012225, 41.6751305], [-8.8017628, 41.6763559], [-8.8070877, 41.6806473], [-8.8135558, 41.6869382], [-8.8131246, 41.6872977], [-8.8129378, 41.6883537], [-8.8223608, 41.6957499], [-8.8254313, 41.6941957], [-8.8279025, 41.6921268], [-8.8282874, 41.6925781], [-8.8274382, 41.693188], [-8.829094, 41.6942422], [-8.832714, 41.6928278], [-8.8331061, 41.6933273], [-8.8361022, 41.6922244], [-8.8372919, 41.6928154], [-8.8378801, 41.6925159], [-8.838634, 41.6929509], [-8.8374102, 41.6943015], [-8.8373823, 41.6948717], [-8.8379257, 41.6954389], [-8.8068308, 41.6806397], [-8.8380728, 41.6954512], [-8.836454, 41.697424], [-8.8404306, 41.7007668], [-8.8439161, 41.7057839], [-8.8443455, 41.7070901], [-8.8456437, 41.7084052], [-8.845696, 41.7089254], [-8.8469991, 41.7089168], [-8.8473556, 41.7095251], [-8.8472693, 41.710338], [-8.848595, 41.7114731], [-8.848401, 41.7125706], [-8.8506884, 41.7181361], [-8.8499875, 41.7183952], [-8.8497737, 41.7194106], [-8.8506322, 41.720191], [-8.8501042, 41.7208073], [-8.8492888, 41.7210535], [-8.8493752, 41.7220082], [-8.8525254, 41.721798], [-8.8536018, 41.7249533], [-8.855069, 41.7274415], [-8.8546291, 41.7295714], [-8.8555093, 41.7309334], [-8.8571672, 41.731457], [-8.8578202, 41.7369864], [-8.8595476, 41.7376929], [-8.8597327, 41.7388778], [-8.8591647, 41.7398794], [-8.8601759, 41.742159], [-8.860143, 41.7431626], [-8.8624234, 41.7452614], [-8.8632792, 41.7449888], [-8.8632041, 41.745353], [-8.8638957, 41.7461439], [-8.8634803, 41.7471781], [-8.8638146, 41.7479139], [-8.8646499, 41.7478594], [-8.8653094, 41.7494678], [-8.8638947, 41.749801], [-8.8639162, 41.7522183], [-8.862519, 41.7522111], [-8.861796, 41.7528892], [-8.8612488, 41.7542539], [-8.8614164, 41.7548416], [-8.8606896, 41.7562898], [-8.8612419, 41.7579953], [-8.8619169, 41.7583656], [-8.8620121, 41.7588538], [-8.8603075, 41.7606919], [-8.8598728, 41.7628274], [-8.8601339, 41.7641438], [-8.8587328, 41.7656308], [-8.8577315, 41.7661693], [-8.8572263, 41.7670601], [-8.8559665, 41.7674148], [-8.8544576, 41.7669608], [-8.8539492, 41.7676288], [-8.8521951, 41.7675665], [-8.85133, 41.7690452], [-8.8493211, 41.7707957], [-8.8483098, 41.7711657], [-8.8466294, 41.7734238], [-8.8459682, 41.77312], [-8.8449168, 41.7749623], [-8.8475108, 41.7751205], [-8.8469929, 41.7756504], [-8.8474759, 41.7765387], [-8.8476536, 41.778542], [-8.849474, 41.7831091], [-8.8489329, 41.7844314], [-8.8501678, 41.7853724], [-8.8513434, 41.7853311], [-8.8523787, 41.7857311], [-8.8517658, 41.78681], [-8.8521895, 41.7879057], [-8.8514507, 41.7894789], [-8.8513577, 41.7918588], [-8.8505817, 41.7929665], [-8.8504647, 41.7950726], [-8.8515348, 41.7960221], [-8.8523067, 41.8037328], [-8.8499205, 41.8059085], [-8.8498062, 41.8064071], [-8.8504575, 41.8072944], [-8.850715, 41.8084684], [-8.8517107, 41.8093445], [-8.85667, 41.8112435], [-8.8570324, 41.8116954], [-8.8563727, 41.8128312], [-8.8588741, 41.813444], [-8.8627632, 41.8136348], [-8.864836, 41.8151694], [-8.8651481, 41.8149228], [-8.8666871, 41.8151874], [-8.866675, 41.8157566], [-8.8704313, 41.8175497], [-8.8727045, 41.8202512], [-8.8736721, 41.8232816], [-8.8727769, 41.8259158], [-8.8729269, 41.8282878], [-8.8741351, 41.8298568], [-8.8747898, 41.8297859], [-8.8751195, 41.8313955], [-8.8749731, 41.8341456], [-8.873874, 41.839076], [-8.8734502, 41.8403049], [-8.8718701, 41.8424821], [-8.8674407, 41.8449459], [-8.8671132, 41.8445658], [-8.861783, 41.8501158], [-8.8602276, 41.8508895], [-8.8600806, 41.8518904], [-8.8419063, 41.8714674], [-8.8404698, 41.874113], [-8.8388508, 41.8760679], [-8.8380226, 41.8787129], [-8.83656, 41.8787963], [-8.8362441, 41.8782427], [-8.8353034, 41.8781523], [-8.826877, 41.8799616], [-8.8220003, 41.8817433], [-8.8216046, 41.8832762], [-8.8231835, 41.8865695], [-8.8234306, 41.8885603], [-8.8213063, 41.8921204], [-8.8206926, 41.8921693], [-8.8202005, 41.8927025], [-8.81855, 41.896109], [-8.8177482, 41.8967353], [-8.8174193, 41.8979582], [-8.816356, 41.8985263], [-8.8164767, 41.8989426], [-8.8160368, 41.8989136], [-8.8157639, 41.8993599], [-8.8145715, 41.8989346], [-8.8141708, 41.8995881], [-8.8132092, 41.8999604], [-8.8624278, 41.900012], [-8.8640298, 41.9016286], [-8.8647888, 41.903093], [-8.867646, 41.9032815], [-8.870592, 41.902535], [-8.8732661, 41.9025908], [-8.8751607, 41.9036331], [-8.8764232, 41.9053881], [-8.8756474, 41.9062785], [-8.8760355, 41.9073933], [-8.8765504, 41.9070818], [-8.8759701, 41.9082168], [-8.8770719, 41.9091326], [-8.8766941, 41.9096791], [-8.8760573, 41.9098367], [-8.8761498, 41.9103038], [-8.8774185, 41.9103704], [-8.8783172, 41.9110058], [-8.8785533, 41.9116145], [-8.8811142, 41.9123347], [-8.8828097, 41.9159554], [-8.8836291, 41.9164973], [-8.8832651, 41.9179511], [-8.8835256, 41.9191659], [-8.8824382, 41.9194312], [-8.8816046, 41.9188953], [-8.8809767, 41.9196352], [-8.8802841, 41.9197823], [-8.8804992, 41.9211485], [-8.8813353, 41.9213654], [-8.8817355, 41.9227281], [-8.8825053, 41.9238035], [-8.8823317, 41.9248952], [-8.8810002, 41.924938], [-8.8818401, 41.9300778], [-8.8851714, 41.9373559], [-8.8841142, 41.9407329], [-8.8843934, 41.9409038], [-8.8837002, 41.9423936], [-8.8824795, 41.9438249], [-8.8820365, 41.9453797], [-8.8837753, 41.9500582], [-8.8833596, 41.9502188], [-8.8826695, 41.9523245], [-8.8832459, 41.9537255], [-8.8839997, 41.9543929], [-8.8843493, 41.956585], [-8.8842165, 41.9600376], [-8.8838464, 41.96136], [-8.8844376, 41.963771], [-8.8838282, 41.9673555], [-8.884199, 41.9712037], [-8.8845572, 41.9717474], [-8.8843467, 41.9726407], [-8.8849583, 41.9783692], [-8.8854799, 41.9783018], [-8.8865229, 41.9801057], [-8.8861786, 41.9818639], [-8.8843681, 41.9853949], [-8.8846343, 41.9860972], [-8.8841582, 41.9877988], [-8.8801338, 41.9931081], [-8.8801436, 41.9957355], [-8.8778651, 41.9998308], [-8.8773514, 42.0001039], [-8.876587, 42.0022052], [-8.8775796, 42.0037604], [-8.8797606, 42.0046844], [-8.881993, 42.0091666], [-8.8821022, 42.0111273], [-8.8816886, 42.0117339], [-8.882288, 42.0135596], [-8.8835219, 42.0147408], [-8.8840234, 42.0168232], [-8.8837995, 42.0186275], [-8.8838249, 42.0208983], [-8.8842863, 42.0225103], [-8.8840771, 42.0248773], [-8.8848534, 42.0265776], [-8.8819501, 42.0338858], [-8.8807605, 42.0347541], [-8.8802804, 42.0356486], [-8.8797116, 42.0377629], [-8.8806321, 42.0386228], [-8.8790962, 42.0396997], [-8.8787932, 42.0409447], [-8.8778854, 42.0414687], [-8.8789004, 42.0436717], [-8.8798725, 42.044806], [-8.8805392, 42.0450521], [-8.880448, 42.045556], [-8.8831571, 42.0457373], [-8.8833626, 42.0475338], [-8.8840957, 42.0483216], [-8.8847476, 42.0499957], [-8.884795, 42.0515454], [-8.8871348, 42.0521029], [-8.8887769, 42.0536925], [-8.8881102, 42.0553976], [-8.8931938, 42.0681508], [-8.8938229, 42.0681307], [-8.8936702, 42.0694911], [-8.894204, 42.0697064], [-8.8941258, 42.0701148], [-8.8932783, 42.0718283], [-8.8927353, 42.0705264], [-8.8924711, 42.0718653], [-8.8927326, 42.0752729], [-8.8936826, 42.0782208], [-8.8910199, 42.0806506], [-8.8899772, 42.0824337], [-8.890983, 42.0856356], [-8.8915454, 42.0853434], [-8.8918897, 42.0832042], [-8.8925268, 42.0833695], [-8.8933027, 42.0845236], [-8.8932364, 42.0883572], [-8.8937488, 42.0911319], [-8.8935011, 42.0923651], [-8.8931266, 42.0918373], [-8.8931548, 42.0925761], [-8.891762, 42.0955289], [-8.8906849, 42.0960048], [-8.8899781, 42.0969998], [-8.8903928, 42.1007526], [-8.8893923, 42.1020323], [-8.8863089, 42.1041392], [-8.8854729, 42.1050973], [-8.8835196, 42.1058439], [-8.8823248, 42.1067469], [-8.880509, 42.1070405], [-8.8797283, 42.107642], [-8.8771215, 42.1079131], [-8.87469, 42.1090119], [-8.8735767, 42.109043], [-8.8731719, 42.1097637], [-8.8718891, 42.110059], [-8.8711646, 42.1108707], [-8.8700359, 42.111357], [-8.8693211, 42.1112654], [-8.8687388, 42.1119092], [-8.8676684, 42.1123077], [-8.8674277, 42.1121844], [-8.8679713, 42.1115611], [-8.8673068, 42.1102529], [-8.8674112, 42.1093052], [-8.8665775, 42.1105655], [-8.8663673, 42.1115643], [-8.8635056, 42.1140898], [-8.8629072, 42.1140192], [-8.862113, 42.1149459], [-8.8606316, 42.115169], [-8.8587998, 42.113536], [-8.8585653, 42.1141193], [-8.8573028, 42.1147165], [-8.8566762, 42.1154783], [-8.8556036, 42.1159], [-8.8544064, 42.1154737], [-8.8548151, 42.1163764], [-8.8542383, 42.1170959], [-8.8542992, 42.1181341], [-8.8525678, 42.1176218], [-8.851404, 42.1182243], [-8.8501895, 42.1182531], [-8.8499976, 42.1187831], [-8.8476267, 42.1184457], [-8.8474486, 42.1177086], [-8.8432458, 42.1158918], [-8.840462, 42.1129476], [-8.8381753, 42.1127621], [-8.8375315, 42.1115015], [-8.8355117, 42.1103843], [-8.8334504, 42.1102062], [-8.8325706, 42.1095615], [-8.8297018, 42.1096881], [-8.8280728, 42.109341], [-8.8277857, 42.1096592], [-8.825969, 42.1095367], [-8.8211323, 42.1103176], [-8.816905, 42.1098369], [-8.814518, 42.108959], [-8.8143243, 42.1097277], [-8.8135841, 42.1099188], [-8.8134289, 42.1117508], [-8.8125003, 42.1126982], [-8.8123052, 42.1143329], [-8.8128339, 42.1149945], [-8.8125111, 42.1162126], [-8.812176, 42.1161523], [-8.8105644, 42.1182316], [-8.8089171, 42.1184473], [-8.8078635, 42.1202935], [-8.8058815, 42.1211994], [-8.8046733, 42.1231054], [-8.8026905, 42.1234874], [-8.8042398, 42.1245542], [-8.8043956, 42.1254839], [-8.8031651, 42.1268681], [-8.8041931, 42.1278431], [-8.8040313, 42.1287347], [-8.8037389, 42.129102], [-8.8028706, 42.1288544], [-8.8029554, 42.1304705], [-8.8022823, 42.130603], [-8.8036839, 42.1312415], [-8.8037141, 42.1316999], [-8.8043916, 42.1321176], [-8.8041122, 42.1320206], [-8.8037954, 42.1324269], [-8.80404, 42.1325646], [-8.8032004, 42.1324017], [-8.8014892, 42.1342356], [-8.8008928, 42.134409], [-8.7998782, 42.1360808], [-8.7989512, 42.1364948], [-8.7976161, 42.1381555], [-8.7974901, 42.1389112], [-8.7984374, 42.1402293], [-8.7981818, 42.1408875], [-8.7975478, 42.141683], [-8.7962692, 42.1417288], [-8.796065, 42.1424302], [-8.7956325, 42.1425259], [-8.7945056, 42.1460368], [-8.7949381, 42.1479829], [-8.7943421, 42.1484061], [-8.7956897, 42.1497594], [-8.797305, 42.1498401], [-8.7986011, 42.149203], [-8.7988818, 42.1500809], [-8.8000247, 42.1506719], [-8.8019638, 42.1548933], [-8.8010362, 42.1567759], [-8.8010779, 42.1575264], [-8.8016206, 42.1578304], [-8.8016797, 42.1589362], [-8.8005497, 42.1595433], [-8.8000274, 42.1605667], [-8.8008194, 42.1636228], [-8.8002368, 42.1648425], [-8.8012363, 42.1659143], [-8.8012681, 42.1664494], [-8.8001341, 42.1673311], [-8.7997459, 42.1682376], [-8.799066, 42.1682732], [-8.7982934, 42.1705462], [-8.7975496, 42.171188], [-8.7966064, 42.1712631], [-8.796669, 42.1725146], [-8.797347, 42.1729732], [-8.7985236, 42.174748], [-8.7981448, 42.1770444], [-8.7954038, 42.1773951], [-8.7940276, 42.1788725], [-8.7928951, 42.1792221], [-8.7916354, 42.1801845], [-8.7899912, 42.1804974], [-8.78924, 42.1813441], [-8.7883517, 42.1812891], [-8.787525, 42.1818086], [-8.7874118, 42.1833495], [-8.7858923, 42.1851124], [-8.7846382, 42.1858655], [-8.7840917, 42.1860471], [-8.7820453, 42.1853998], [-8.7792161, 42.1857144], [-8.7774541, 42.187172], [-8.7762662, 42.1892846], [-8.7750755, 42.190075], [-8.7744749, 42.1922759], [-8.7707175, 42.1942628], [-8.7669037, 42.1957033], [-8.7627148, 42.1952107], [-8.7623984, 42.1957382], [-8.760986, 42.1961977], [-8.7598506, 42.1961148], [-8.759622, 42.195667], [-8.7575819, 42.1964639], [-8.7578577, 42.1970984], [-8.7573697, 42.1975935], [-8.7554811, 42.1979144], [-8.7549057, 42.1991592], [-8.7528877, 42.200209], [-8.7509951, 42.2006084], [-8.7502314, 42.2003772], [-8.7498488, 42.199604], [-8.7489022, 42.1988779], [-8.7470055, 42.1992017], [-8.7448708, 42.1988543], [-8.7437912, 42.1995076], [-8.7424073, 42.1993653], [-8.7410872, 42.1996957], [-8.7412317, 42.2001656], [-8.7420706, 42.2006604], [-8.7418221, 42.2008887], [-8.741001, 42.2008747], [-8.7381216, 42.2021445], [-8.7389448, 42.2028392], [-8.7392472, 42.2048635], [-8.7377014, 42.2056031], [-8.7353858, 42.205345], [-8.7343888, 42.2061882], [-8.734016, 42.2073761], [-8.7342726, 42.2073707], [-8.7352251, 42.2095756], [-8.7359452, 42.2097263], [-8.7365934, 42.2112676], [-8.732929, 42.2115705], [-8.7329752, 42.2118463], [-8.7320955, 42.2122692], [-8.7311033, 42.2139823], [-8.7280255, 42.2159411], [-8.7275019, 42.2166758], [-8.7250705, 42.2173211], [-8.7237737, 42.2166846], [-8.7232032, 42.2171246], [-8.7225521, 42.2170609], [-8.7217983, 42.2176719], [-8.721102, 42.2190881], [-8.7202978, 42.2194919], [-8.719077, 42.218938], [-8.7171328, 42.219038], [-8.7167815, 42.2186149], [-8.7161478, 42.2188161], [-8.7158252, 42.2191356], [-8.7169207, 42.2202308], [-8.7167074, 42.2215852], [-8.7169518, 42.222722], [-8.7165351, 42.2235782], [-8.7143721, 42.2240458], [-8.7134603, 42.2236922], [-8.7129589, 42.2239639], [-8.7131084, 42.2243332], [-8.7120992, 42.2247392], [-8.7121719, 42.2250876], [-8.7112598, 42.2251012], [-8.7111442, 42.2259593], [-8.7120987, 42.226321], [-8.7110721, 42.2271789], [-8.7102762, 42.2286306], [-8.7086616, 42.2303844], [-8.7072868, 42.2303833], [-8.7069398, 42.2310702], [-8.7006905, 42.2310048], [-8.6999402, 42.2322921], [-8.6998972, 42.233266], [-8.6982781, 42.2336429], [-8.697323, 42.2344893], [-8.6960524, 42.2346818], [-8.693178, 42.2394048], [-8.6932713, 42.2411332], [-8.6919381, 42.2429652], [-8.6901536, 42.2442962], [-8.6890349, 42.2462824], [-8.6878887, 42.2464527], [-8.6866654, 42.2453427], [-8.6845636, 42.2449401], [-8.682101, 42.2495422], [-8.681847, 42.2506535], [-8.6807781, 42.2511125], [-8.6796414, 42.2524684], [-8.6770285, 42.2533124], [-8.6755817, 42.2547162], [-8.672788, 42.2555151], [-8.6716685, 42.2578758], [-8.6674536, 42.2612836], [-8.6648826, 42.2609583], [-8.663463, 42.261443], [-8.6634925, 42.2635155], [-8.663793, 42.264055], [-8.6634772, 42.2653352], [-8.6628547, 42.2664379], [-8.6618914, 42.2672414], [-8.6616511, 42.2684677], [-8.6595305, 42.2695908], [-8.659519, 42.2715784], [-8.6605547, 42.2726096], [-8.6610668, 42.2740938], [-8.662961, 42.2753081], [-8.6616396, 42.2765143], [-8.6600469, 42.2770928], [-8.6558463, 42.2766408], [-8.6524502, 42.2793962], [-8.6520838, 42.281295], [-8.650318, 42.2826216], [-8.6474559, 42.2833303], [-8.6461373, 42.2833153], [-8.6456642, 42.2829034], [-8.6418752, 42.284886], [-8.6400344, 42.2837948], [-8.6389214, 42.2819022], [-8.6351187, 42.2808627], [-8.634308, 42.2801134], [-8.6298388, 42.2784761], [-8.629706, 42.277302], [-8.6290511, 42.2763947], [-8.6291896, 42.2759345], [-8.6286064, 42.2764668], [-8.6282, 42.2760937], [-8.6277787, 42.2771803], [-8.6278234, 42.2782402], [-8.6256913, 42.2766989], [-8.623461, 42.2770106], [-8.6214685, 42.2776532], [-8.6209783, 42.2786629], [-8.6194794, 42.2798327], [-8.6136441, 42.2813238], [-8.6131327, 42.2812308], [-8.6126753, 42.2795419], [-8.6125378, 42.27982], [-8.6114162, 42.2798819], [-8.6109855, 42.2805184], [-8.6102976, 42.2805083], [-8.6088741, 42.2816737], [-8.609, 42.283], [-8.628, 42.31], [-8.638, 42.342], [-8.64, 42.375], [-8.645, 42.41], [-8.644, 42.431], [-8.6873689, 42.4425926], [-8.6862792, 42.4425377], [-8.684193, 42.4432114], [-8.6840861, 42.4438089], [-8.6860533, 42.444945], [-8.686182, 42.4455632], [-8.6857407, 42.4459729], [-8.6856338, 42.4474502], [-8.6849239, 42.4486719], [-8.6828793, 42.450208], [-8.6827687, 42.4514331], [-8.6790062, 42.4528637], [-8.6791832, 42.4532476], [-8.6787862, 42.4535286], [-8.6772636, 42.4537861], [-8.6732896, 42.4553679], [-8.673222, 42.456959], [-8.671783, 42.45739], [-8.6716937, 42.4582781], [-8.6686287, 42.4612174], [-8.6684043, 42.4623604], [-8.6676206, 42.4631145], [-8.6662343, 42.4636977], [-8.6643004, 42.4639809], [-8.6638831, 42.463464], [-8.6624953, 42.4631342], [-8.662637, 42.4624061], [-8.6611287, 42.4625686], [-8.6600926, 42.4614355], [-8.6584321, 42.4616558], [-8.6579069, 42.4614713], [-8.6577675, 42.4608392], [-8.6554313, 42.4602696], [-8.6550562, 42.4589045], [-8.652302, 42.4568223], [-8.6512877, 42.456973], [-8.6496084, 42.4579295], [-8.6488994, 42.4587544], [-8.6479222, 42.4589242], [-8.6453556, 42.456878], [-8.6444464, 42.456821], [-8.6875892, 42.442597], [-8.6884455, 42.4409731], [-8.6885473, 42.4393303], [-8.6895222, 42.4393518], [-8.6931638, 42.4374958], [-8.6945708, 42.4379974], [-8.6996342, 42.4372029], [-8.7016914, 42.4360413], [-8.7032072, 42.4357432], [-8.7040608, 42.4345637], [-8.7056139, 42.4336821], [-8.7068679, 42.4341982], [-8.7064786, 42.4348064], [-8.7068918, 42.4354805], [-8.7073891, 42.4351742], [-8.7085927, 42.435574], [-8.7086963, 42.4370414], [-8.7077052, 42.4385368], [-8.7092148, 42.4388403], [-8.7115166, 42.4386399], [-8.7125416, 42.4402922], [-8.7121616, 42.4407339], [-8.7121765, 42.441578], [-8.7131518, 42.4420873], [-8.710993, 42.4424022], [-8.7117103, 42.4433131], [-8.7116159, 42.4438616], [-8.7154467, 42.4462557], [-8.7169932, 42.4460642], [-8.7167486, 42.4448067], [-8.7173169, 42.442987], [-8.7181566, 42.4423044], [-8.7186411, 42.4410427], [-8.7191596, 42.4378237], [-8.7197685, 42.4383117], [-8.7213499, 42.438295], [-8.7213213, 42.4391351], [-8.7234885, 42.4385593], [-8.724979, 42.4392755], [-8.7254585, 42.4399347], [-8.7270597, 42.4399875], [-8.7284959, 42.441393], [-8.728963, 42.443114], [-8.7303228, 42.4432633], [-8.7322624, 42.4425349], [-8.733697, 42.4425679], [-8.7337734, 42.4435226], [-8.7350928, 42.4464516], [-8.7349571, 42.4471615], [-8.7362838, 42.4478083], [-8.7368175, 42.4498308], [-8.7356969, 42.4516762], [-8.7332477, 42.4518706], [-8.7344122, 42.4526142], [-8.7337367, 42.454152], [-8.7348982, 42.4556725], [-8.7370998, 42.4562753], [-8.7357395, 42.4565508], [-8.7351463, 42.4570655], [-8.7360537, 42.4584286], [-8.7357729, 42.4593616], [-8.734262, 42.4600182], [-8.73338, 42.4593227], [-8.7329945, 42.4601585], [-8.735115, 42.4629605], [-8.7350429, 42.4624208], [-8.7360407, 42.4634366], [-8.7374232, 42.4637425], [-8.7393321, 42.4634312], [-8.7415287, 42.4642283], [-8.7425428, 42.4642235], [-8.7425159, 42.4661673], [-8.7428929, 42.4667329], [-8.742683, 42.4678965], [-8.7429888, 42.4682504], [-8.743569, 42.468037], [-8.7444596, 42.4692684], [-8.7442071, 42.4712135], [-8.7454738, 42.4718546], [-8.74533, 42.47338], [-8.7447, 42.47383], [-8.74481, 42.47471], [-8.74325, 42.47505], [-8.7432683, 42.475621], [-8.7416165, 42.4763659], [-8.7413483, 42.4769605], [-8.7417257, 42.4774055], [-8.741622, 42.4780637], [-8.74109, 42.47903], [-8.74051, 42.47916], [-8.74056, 42.48048], [-8.7426769, 42.4838253], [-8.74529, 42.48567], [-8.74701, 42.4862316], [-8.747757, 42.4859681], [-8.7497987, 42.486318], [-8.7504662, 42.4874901], [-8.7517493, 42.4877637], [-8.75267, 42.48958], [-8.751767, 42.4902641], [-8.752, 42.49097], [-8.7532022, 42.4916485], [-8.755899, 42.4913081], [-8.75714, 42.49219], [-8.7588313, 42.4921649], [-8.7586675, 42.492503], [-8.7601997, 42.4920457], [-8.7613242, 42.4923593], [-8.7610134, 42.4928845], [-8.7624391, 42.4933142], [-8.7630549, 42.4929382], [-8.7647937, 42.4933337], [-8.76493, 42.4927], [-8.7665011, 42.4927228], [-8.7672314, 42.4922824], [-8.770472, 42.4926151], [-8.7719471, 42.4933723], [-8.7737375, 42.4933067], [-8.7743546, 42.4929705], [-8.7745308, 42.4938343], [-8.7751562, 42.4937409], [-8.7748953, 42.4948038], [-8.7761486, 42.4949751], [-8.7778095, 42.4975094], [-8.778035, 42.5003122], [-8.7775324, 42.5012577], [-8.7768657, 42.5014727], [-8.7771006, 42.5018487], [-8.7752422, 42.504769], [-8.7736417, 42.5057533], [-8.7714274, 42.50652], [-8.7707271, 42.5075115], [-8.7705841, 42.5090419], [-8.7715618, 42.510602], [-8.7715521, 42.5114531], [-8.7699407, 42.512123], [-8.7680642, 42.5138706], [-8.7653739, 42.5151591], [-8.7662778, 42.5156151], [-8.7655831, 42.5156219], [-8.764951, 42.5163372], [-8.7649237, 42.5184243], [-8.7644857, 42.5198568], [-8.7639365, 42.5204362], [-8.7623642, 42.5210013], [-8.760583, 42.523587], [-8.7590734, 42.5244508], [-8.759014, 42.524957], [-8.759621, 42.525387], [-8.759695, 42.52586], [-8.7595185, 42.5264344], [-8.75777, 42.5274166], [-8.758341, 42.528162], [-8.7583457, 42.5290771], [-8.7579791, 42.5301525], [-8.756511, 42.532197], [-8.757078, 42.532885], [-8.756703, 42.5342732], [-8.7559455, 42.5348453], [-8.7527607, 42.534052], [-8.7523046, 42.5349456], [-8.7524947, 42.5356048], [-8.7575251, 42.5368884], [-8.7591164, 42.5363461], [-8.7626574, 42.5362799], [-8.7643115, 42.5371539], [-8.7646393, 42.5384394], [-8.7661443, 42.5400302], [-8.7690737, 42.5412638], [-8.769931, 42.5400308], [-8.7695328, 42.538939], [-8.7719658, 42.5389639], [-8.7736611, 42.5365563], [-8.7747071, 42.5362235], [-8.7756065, 42.5366997], [-8.7778206, 42.536551], [-8.7802477, 42.5372268], [-8.7818036, 42.5361775], [-8.7825057, 42.5361645], [-8.7834509, 42.5363449], [-8.7834786, 42.5373469], [-8.7860231, 42.5379459], [-8.7862733, 42.5383596], [-8.7912643, 42.5379189], [-8.7916426, 42.5385326], [-8.7936687, 42.5389909], [-8.7957296, 42.5410987], [-8.7954184, 42.5422865], [-8.7959878, 42.5427064], [-8.801113, 42.5437742], [-8.8021529, 42.5420993], [-8.802575, 42.5425671], [-8.8036607, 42.5427668], [-8.8051882, 42.543643], [-8.8106162, 42.5447638], [-8.8116136, 42.5450803], [-8.8116878, 42.5454905], [-8.8122388, 42.5453363], [-8.8139584, 42.5459664], [-8.8156519, 42.5470729], [-8.8179516, 42.547414], [-8.818688, 42.5468071], [-8.8196172, 42.5466593], [-8.8212463, 42.5467685], [-8.8220881, 42.547207], [-8.8240135, 42.5470323], [-8.8276291, 42.5451484], [-8.8304974, 42.545009], [-8.8315004, 42.5456791], [-8.8315396, 42.5470367], [-8.8322883, 42.5478135], [-8.8323734, 42.5486974], [-8.8331239, 42.549392], [-8.8329012, 42.5499548], [-8.8333565, 42.551468], [-8.8360979, 42.5523506], [-8.836183, 42.5537813], [-8.8352331, 42.5560134], [-8.8339934, 42.5574036], [-8.8352311, 42.5585844], [-8.8341364, 42.5589433], [-8.8336008, 42.5601874], [-8.8315775, 42.5603288], [-8.830781, 42.5619486], [-8.8311803, 42.562558], [-8.8297341, 42.5629801], [-8.8293866, 42.5635581], [-8.8299817, 42.5654172], [-8.8297518, 42.566889], [-8.828965, 42.566744], [-8.82976, 42.5694757], [-8.8296653, 42.5717168], [-8.8277141, 42.5748008], [-8.8254773, 42.5760066], [-8.8236953, 42.5774755], [-8.8228927, 42.5776095], [-8.8153912, 42.5760944], [-8.8021354, 42.5758443], [-8.7984232, 42.5783118], [-8.7953185, 42.5791642], [-8.794783, 42.5797746], [-8.795081, 42.5799307], [-8.7948329, 42.5805898], [-8.7966917, 42.5824609], [-8.7972956, 42.5826135], [-8.7963195, 42.5832662], [-8.7954285, 42.5853333], [-8.7908325, 42.5857831], [-8.7902941, 42.5876569], [-8.7878056, 42.5894828], [-8.7855982, 42.5920636], [-8.7840131, 42.5930459], [-8.7836405, 42.594871], [-8.7817776, 42.5949331], [-8.7770692, 42.5925543], [-8.7749164, 42.5922462], [-8.7721178, 42.5927686], [-8.769905, 42.5948976], [-8.7701167, 42.5950183], [-8.7691614, 42.5962153], [-8.7700091, 42.5965209], [-8.7669956, 42.601124], [-8.7662847, 42.6012395], [-8.7659485, 42.601785], [-8.7678815, 42.6068212], [-8.7702309, 42.6100135], [-8.774561, 42.6132456], [-8.7757848, 42.6134129], [-8.776647, 42.6130086], [-8.7772484, 42.6137331], [-8.7769549, 42.6147055], [-8.7760402, 42.6148411], [-8.7757136, 42.6153737], [-8.7763089, 42.6164853], [-8.7759041, 42.6176189], [-8.7735321, 42.6204548], [-8.7723683, 42.6205233], [-8.7696142, 42.6196192], [-8.7697912, 42.619856], [-8.7686716, 42.6207688], [-8.7680489, 42.6221054], [-8.7665769, 42.6227328], [-8.7659972, 42.6238354], [-8.7630844, 42.6261021], [-8.7614994, 42.6283477], [-8.7577105, 42.6298145], [-8.7544259, 42.6289503], [-8.7519406, 42.6315244], [-8.7501333, 42.6329385], [-8.747587, 42.6338778], [-8.7459765, 42.635736], [-8.7463106, 42.6371725], [-8.7421636, 42.6431717], [-8.7424109, 42.6437829], [-8.7405897, 42.6448148], [-8.7409212, 42.6456615], [-8.7421748, 42.646111], [-8.7420139, 42.6466003], [-8.7394246, 42.6484111], [-8.7388802, 42.6499325], [-8.7384392, 42.6498852], [-8.7377834, 42.651953], [-8.7383027, 42.6538604], [-8.7377304, 42.6551246], [-8.7378397, 42.6575311], [-8.7361483, 42.6588044], [-8.7364789, 42.6592545], [-8.7353325, 42.6598232], [-8.7346437, 42.6612566], [-8.7338778, 42.6609299], [-8.7323429, 42.6627862], [-8.7303049, 42.6630546], [-8.7296854, 42.6636371], [-8.7270359, 42.6637302], [-8.7263157, 42.6662567], [-8.7265515, 42.6669263], [-8.7282408, 42.667539], [-8.7277097, 42.6680813], [-8.7279417, 42.6682773], [-8.7292703, 42.6686554], [-8.7285813, 42.6703947], [-8.7293137, 42.6706407], [-8.7278412, 42.6724946], [-8.725592, 42.6739382], [-8.7257531, 42.6742592], [-8.7254143, 42.6745148], [-8.72495, 42.6743538], [-8.7226551, 42.6759164], [-8.7221985, 42.6753296], [-8.7213356, 42.6755718], [-8.7204627, 42.6760796], [-8.7199604, 42.6770032], [-8.7202876, 42.677577], [-8.7197638, 42.6788344], [-8.7215536, 42.6791624], [-8.7246033, 42.6806432], [-8.7250137, 42.6810829], [-8.7248366, 42.681848], [-8.7239756, 42.682546], [-8.7254213, 42.6836876], [-8.7268992, 42.683802], [-8.7279027, 42.6849454], [-8.7270794, 42.6867396], [-8.726062, 42.687153], [-8.7216166, 42.6873983], [-8.7195118, 42.6886658], [-8.7182392, 42.6887045], [-8.7174609, 42.6910262], [-8.716318, 42.6920853], [-8.7162199, 42.6933299], [-8.7152561, 42.6938153], [-8.7145726, 42.694639], [-8.7146577, 42.6952271], [-8.7138715, 42.6958246], [-8.7139525, 42.6965104], [-8.714628, 42.6970001], [-8.7156125, 42.6991174], [-8.712895, 42.7018795], [-8.7101199, 42.7033368], [-8.7064783, 42.7040343], [-8.7067256, 42.7029563], [-8.7058526, 42.7041947], [-8.7020316, 42.704722], [-8.6923402, 42.7052196], [-8.6844591, 42.7044555], [-8.684254, 42.7038426], [-8.6837874, 42.7037716], [-8.683539, 42.7049806], [-8.6847122, 42.7050455], [-8.6849551, 42.7046703], [-8.6827507, 42.7044366], [-8.6797349, 42.7047831], [-8.6715453, 42.709518], [-8.6619199, 42.712051], [-8.6597899, 42.7138757], [-8.6570496, 42.7140404], [-8.6551914, 42.7177293], [-8.6524829, 42.7203062], [-8.6528559, 42.7221197], [-8.6537605, 42.7220136], [-8.654, 42.726], [-8.66, 42.738], [-8.665, 42.749], [-8.635, 42.777], [-8.597, 42.811], [-8.573, 42.849], [-8.545, 42.881]]}}]}